[{"OBJECT_NAME":"NUSTAR","OBJECT_ID":"2012-031A","EPOCH":"2026-03-10T00:00:02.999808","MEAN_MOTION":15.07728841,"ECCENTRICITY":0.00071224,"INCLINATION":6.0266,"RA_OF_ASC_NODE":57.5732,"ARG_OF_PERICENTER":70.6924,"MEAN_ANOMALY":331.0724,"EPHEMERIS_TYPE":0,"CLASSIFICATION_TYPE":"U","NORAD_CAT_ID":38358,"ELEMENT_SET_NO":999,"REV_AT_EPOCH":130,"BSTAR":0.0011080621,"MEAN_MOTION_DOT":0.00018332,"MEAN_MOTION_DDOT":0},{"OBJECT_NAME":"STARLINK-4508","OBJECT_ID":"2022-101AJ","EPOCH":"2026-03-09T23:40:37.600320","MEAN_MOTION":15.08830312,"ECCENTRICITY":0.0001271,"INCLINATION":53.2174,"RA_OF_ASC_NODE":62.785,"ARG_OF_PERICENTER":72.915,"MEAN_ANOMALY":287.1981,"EPHEMERIS_TYPE":0,"CLASSIFICATION_TYPE":"U","NORAD_CAT_ID":53559,"ELEMENT_SET_NO":999,"REV_AT_EPOCH":19635,"BSTAR":4.2527157e-5,"MEAN_MOTION_DOT":3.89e-6,"MEAN_MOTION_DDOT":0}]
